NORAD_CAT_ID,OBJECT_NAME,OBJECT_TYPE,EPOCH,MEAN_MOTION,ECCENTRICITY,INCLINATION,RA_OF_ASC_NODE,ARG_OF_PERICENTER,MEAN_ANOMALY,BSTAR,MEAN_MOTION_DOT,MEAN_MOTION_DDOT,TLE_LINE0,TLE_LINE1,TLE_LINE2,SEMIMAJOR_AXIS,PERIOD,APOGEE,PERIGEE,DECAYED
55927.0,STARLINK-5919,PAYLOAD,2023-08-07 03:04:14,14.98325132,0.0003192,70.0005,168.4518,265.9544,94.125,-0.00012304,-1.561e-05,0.0,0 STARLINK-5919,1 55927U 23037P   23219.12794330 -.00001561  00000-0 -12304-3 0  9997,2 55927  70.0005 168.4518 0003192 265.9544  94.1250 14.98325132 22198,6950.208,96.107,574.291,569.854,0.0
55927.0,STARLINK-5919,PAYLOAD,2023-08-07 14:17:10,14.98329775,0.0003194,70.0009,167.2737,265.4265,94.6529,-5.5954e-05,-7.61e-06,0.0,0 STARLINK-5919,1 55927U 23037P   23219.59525958 -.00000761  00000-0 -55954-4 0  9996,2 55927  70.0009 167.2737 0003194 265.4265  94.6529 14.98329775 22268,6950.194,96.107,574.278,569.839,0.0
55927.0,STARLINK-5919,PAYLOAD,2023-08-08 03:06:14,14.98337184,0.0003295,70.0006,165.9275,266.5343,93.5439,6.7003e-05,7.07e-06,0.0,0 STARLINK-5919,1 55927U 23037P   23220.12933051  .00000707  00000-0  67003-4 0  9990,2 55927  70.0006 165.9275 0003295 266.5343  93.5439 14.98337184 22348,6950.171,96.107,574.326,569.746,0.0
55927.0,STARLINK-5919,PAYLOAD,2023-08-09 06:20:35,14.98289445,0.0003119,70.0007,163.0666,264.2825,95.7978,-0.00029177,-3.569e-05,0.0,0 STARLINK-5919,1 55927U 23037P   23221.26430076 -.00003569  00000-0 -29177-3 0  9995,2 55927  70.0007 163.0666 0003119 264.2825  95.7978 14.98289445 22514,6950.318,96.11,574.351,570.016,0.0
55927.0,STARLINK-5919,PAYLOAD,2023-08-09 22:21:53,14.98337636,0.0003192,70.0011,161.3832,260.9315,99.1483,5.7083e-05,5.88e-06,0.0,0 STARLINK-5919,1 55927U 23037P   23221.93186560  .00000588  00000-0  57083-4 0  9999,2 55927  70.0011 161.3832 0003192 260.9315  99.1483 14.98337636 22619,6950.169,96.107,574.253,569.816,0.0
55927.0,STARLINK-5919,PAYLOAD,2023-08-10 12:47:05,14.9834416,0.0002866,70.0017,159.8682,271.0461,89.0369,0.00014415,1.628e-05,0.0,0 STARLINK-5919,1 55927U 23037P   23222.53269770  .00001628  00000-0  14415-3 0  9998,2 55927  70.0017 159.8682 0002866 271.0461  89.0369 14.98344160 22703,6950.149,96.106,574.006,570.022,0.0
55927.0,STARLINK-5919,PAYLOAD,2023-08-11 19:13:38,14.98336829,0.0002855,70.0004,156.6721,270.3679,89.7153,-0.00014979,-1.88e-05,0.0,0 STARLINK-5919,1 55927U 23037P   23223.80114536 -.00001880  00000-0 -14979-3 0  9995,2 55927  70.0004 156.6721 0002855 270.3679  89.7153 14.98336829 22890,6950.172,96.107,574.021,570.052,0.0
55927.0,STARLINK-5919,PAYLOAD,2023-08-12 19:15:39,14.98338109,0.0002867,70.0012,154.147,269.2046,90.8785,-0.00012992,-1.643e-05,0.0,0 STARLINK-5919,1 55927U 23037P   23224.80253783 -.00001643  00000-0 -12992-3 0  9994,2 55927  70.0012 154.1470 0002867 269.2046  90.8785 14.98338109 23046,6950.168,96.106,574.025,570.04,0.0
55927.0,STARLINK-5919,PAYLOAD,2023-08-13 01:40:11,14.98400848,0.0002617,70.0008,153.4733,266.3754,93.7106,-0.0010271,-0.00012349,0.0,0 STARLINK-5919,1 55927U 23037P   23225.06957643 -.00012349  00000-0 -10271-2 0  9991,2 55927  70.0008 153.4733 0002617 266.3754  93.7106 14.98400848 23085,6949.974,96.102,573.658,570.02,0.0
55927.0,STARLINK-5919,PAYLOAD,2023-08-13 14:29:15,14.98343634,0.0003045,70.001,152.127,268.8407,91.2403,-0.00020208,-2.504e-05,0.0,0 STARLINK-5919,1 55927U 23037P   23225.60365091 -.00002504  00000-0 -20208-3 0  9995,2 55927  70.0010 152.1270 0003045 268.8407  91.2403 14.98343634 23169,6950.151,96.106,574.132,569.899,0.0
55927.0,STARLINK-5919,PAYLOAD,2023-08-14 01:42:12,14.98328612,0.0003034,70.0007,150.9485,269.2278,90.8533,1.5041e-05,8.6e-07,0.0,0 STARLINK-5919,1 55927U 23037P   23226.07097556  .00000086  00000-0  15041-4 0  9996,2 55927  70.0007 150.9485 0003034 269.2278  90.8533 14.98328612 23234,6950.197,96.107,574.171,569.953,0.0
55927.0,STARLINK-5919,PAYLOAD,2023-08-15 04:56:28,14.98335168,0.0003061,70.0006,148.0876,269.4231,90.6577,3.8615e-05,3.68e-06,0.0,0 STARLINK-5919,1 55927U 23037P   23227.20589022  .00000368  00000-0  38615-4 0  9991,2 55927  70.0006 148.0876 0003061 269.4231  90.6577 14.98335168 23405,6950.177,96.107,574.169,569.914,0.0
55927.0,STARLINK-5919,PAYLOAD,2023-08-15 17:45:33,14.98327597,0.0002998,70.0008,146.7409,270.2822,89.7994,2.5613e-05,2.13e-06,0.0,0 STARLINK-5919,1 55927U 23037P   23227.73997443  .00000213  00000-0  25613-4 0  9992,2 55927  70.0008 146.7409 0002998 270.2822  89.7994 14.98327597 23485,6950.2,96.107,574.149,569.982,0.0
55927.0,STARLINK-5919,PAYLOAD,2023-08-16 04:58:29,14.98337775,0.0002973,70.0008,145.5625,270.8655,89.2163,7.0669e-05,7.5e-06,0.0,0 STARLINK-5919,1 55927U 23037P   23228.20728636  .00000750  00000-0  70669-4 0  9998,2 55927  70.0008 145.5625 0002973 270.8655  89.2163 14.98337775 23555,6950.169,96.107,574.1,569.968,0.0
55927.0,STARLINK-5919,PAYLOAD,2023-08-17 01:48:14,14.98332819,0.0002661,70.0005,143.3747,281.7947,78.2914,-1.3263e-05,-2.51e-06,0.0,0 STARLINK-5919,1 55927U 23037P   23229.07517347 -.00000251  00000-0 -13263-4 0  9994,2 55927  70.0005 143.3747 0002661 281.7947  78.2914 14.98332819 23682,6950.184,96.107,573.899,570.2,0.0
55927.0,STARLINK-5919,PAYLOAD,2023-08-18 03:26:23,14.98334963,0.0003031,70.0005,140.6812,266.6367,93.4445,8.6731e-06,1e-07,0.0,0 STARLINK-5919,1 55927U 23037P   23230.14332751  .00000010  00000-0  86731-5 0  9990,2 55927  70.0005 140.6812 0003031 266.6367  93.4445 14.98334963 23843,6950.178,96.107,574.149,569.936,0.0
55927.0,STARLINK-5919,PAYLOAD,2023-08-19 01:52:16,14.98332874,0.0002655,70.0004,138.3244,279.0108,81.075,-3.6756e-05,-5.32e-06,0.0,0 STARLINK-5919,1 55927U 23037P   23231.07797285 -.00000532  00000-0 -36756-4 0  9992,2 55927  70.0004 138.3244 0002655 279.0108  81.0750 14.98332874 23983,6950.184,96.107,573.894,570.204,0.0
55927.0,STARLINK-5919,PAYLOAD,2023-08-20 03:30:25,14.98327384,0.0003007,70.001,135.6314,265.5751,94.5064,4.8092e-05,4.81e-06,0.0,0 STARLINK-5919,1 55927U 23037P   23232.14613348  .00000481  00000-0  48092-4 0  9995,2 55927  70.0010 135.6314 0003007 265.5751  94.5064 14.98327384 24140,6950.201,96.107,574.156,569.976,0.0
55927.0,STARLINK-5919,PAYLOAD,2023-08-20 17:55:38,14.98384548,0.0003226,70.0015,134.1177,273.1802,86.8988,-0.00089309,-0.00010748,0.0,0 STARLINK-5919,1 55927U 23037P   23232.74697704 -.00010748  00000-0 -89309-3 0  9993,2 55927  70.0015 134.1177 0003226 273.1802  86.8988 14.98384548 24235,6950.024,96.104,574.131,569.647,0.0
55927.0,STARLINK-5919,PAYLOAD,2023-08-21 01:56:19,14.98326016,0.0002999,70.0003,133.2756,271.4631,88.6185,-3.7769e-05,-5.44e-06,0.0,0 STARLINK-5919,1 55927U 23037P   23233.08077879 -.00000544  00000-0 -37769-4 0  9993,2 55927  70.0003 133.2756 0002999 271.4631  88.6185 14.98326016 24282,6950.205,96.107,574.155,569.986,0.0
55927.0,STARLINK-5919,PAYLOAD,2023-08-21 19:33:47,14.98329927,0.0003183,70.0004,131.4234,276.7305,83.3491,0.00011019,1.222e-05,0.0,0 STARLINK-5919,1 55927U 23037P   23233.81513164  .00001222  00000-0  11019-3 0  9997,2 55927  70.0004 131.4234 0003183 276.7305  83.3491 14.98329927 24394,6950.193,96.107,574.27,569.846,0.0
55927.0,STARLINK-5919,PAYLOAD,2023-08-22 01:58:18,14.98342996,0.0002711,70.0005,130.7508,273.4277,86.6572,0.00012204,1.364e-05,0.0,0 STARLINK-5919,1 55927U 23037P   23234.08216302  .00001364  00000-0  12204-3 0  9995,2 55927  70.0005 130.7508 0002711 273.4277  86.6572 14.98342996 24431,6950.153,96.106,573.902,570.134,0.0
55927.0,STARLINK-5919,PAYLOAD,2023-08-23 02:00:20,14.9832856,0.0003396,70.0001,128.2265,257.2017,102.8763,4.1431e-05,4.01e-06,0.0,0 STARLINK-5919,1 55927U 23037P   23235.08356923  .00000401  00000-0  41431-4 0  9996,2 55927  70.0001 128.2265 0003396 257.2017 102.8763 14.98328560 24581,6950.197,96.107,574.423,569.702,0.0
55927.0,STARLINK-5919,PAYLOAD,2023-08-24 00:26:13,14.98333179,0.0003365,70.0019,125.8715,278.2781,81.7996,-2.8319e-05,-4.31e-06,0.0,0 STARLINK-5919,1 55927U 23037P   23236.01820911 -.00000431  00000-0 -28319-4 0  9998,2 55927  70.0019 125.8715 0003365 278.2781  81.7996 14.98333179 24383,6950.183,96.107,574.387,569.709,0.0
55927.0,STARLINK-5919,PAYLOAD,2023-08-25 02:04:22,14.98330478,0.0003086,70.0006,123.1764,269.5833,90.4973,2.1558e-05,1.64e-06,0.0,0 STARLINK-5919,1 55927U 23037P   23237.08636785  .00000164  00000-0  21558-4 0  9999,2 55927  70.0006 123.1764 0003086 269.5833  90.4973 14.98330478 24881,6950.191,96.107,574.201,569.912,0.0
55927.0,STARLINK-5919,PAYLOAD,2023-08-25 19:41:50,14.98332427,0.0003112,70.0004,121.325,269.9491,90.1311,2.5938e-05,2.17e-06,0.0,0 STARLINK-5919,1 55927U 23037P   23237.82072581  .00000217  00000-0  25938-4 0  9994,2 55927  70.0004 121.3250 0003112 269.9491  90.1311 14.98332427 24657,6950.185,96.107,574.213,569.887,0.0
55927.0,STARLINK-5919,PAYLOAD,2023-08-26 02:06:22,14.98335856,0.0003045,70.0004,120.6516,269.0587,91.0223,6.5897e-05,6.93e-06,0.0,0 STARLINK-5919,1 55927U 23037P   23238.08776179  .00000693  00000-0  65897-4 0  9993,2 55927  70.0004 120.6516 0003045 269.0587  91.0223 14.98335856 25030,6950.175,96.107,574.156,569.923,0.0
55927.0,STARLINK-5919,PAYLOAD,2023-08-26 18:07:43,14.98329312,0.0002822,70.0008,118.9703,273.0382,87.0454,-4.5168e-05,-6.32e-06,0.0,0 STARLINK-5919,1 55927U 23037P   23238.75536923 -.00000632  00000-0 -45168-4 0  9992,2 55927  70.0008 118.9703 0002822 273.0382  87.0454 14.98329312 25134,6950.195,96.107,574.021,570.099,0.0
55927.0,STARLINK-5919,PAYLOAD,2023-08-26 21:20:00,14.98328797,0.0002809,70.001,118.6331,277.3716,82.7124,-3.9643e-05,-5.66e-06,0.0,0 STARLINK-5919,1 55927U 23037P   23238.88888968 -.00000566  00000-0 -39643-4 0  9992,2 55927  70.0010 118.6331 0002809 277.3716  82.7124 14.98328797 24810,6950.197,96.107,574.014,570.109,0.0
55927.0,STARLINK-5919,PAYLOAD,2023-08-27 02:08:24,14.98331755,0.0003,70.0002,118.1268,273.8423,86.2393,-3.8418e-05,-5.51e-06,0.0,0 STARLINK-5919,1 55927U 23037P   23239.08916747 -.00000551  00000-0 -38418-4 0  9995,2 55927  70.0002 118.1268 0003000 273.8423  86.2393 14.98331755 24843,6950.187,96.107,574.138,569.967,0.0
